[{"OBJECT_NAME":"STARLINK-31289","OBJECT_ID":"2024-044X","EPOCH":"2026-03-09T19:26:55.407264","MEAN_MOTION":15.27560669,"ECCENTRICITY":0.00032142,"INCLINATION":43.0075,"RA_OF_ASC_NODE":106.3738,"ARG_OF_PERICENTER":275.0621,"MEAN_ANOMALY":84.9864,"EPHEMERIS_TYPE":0,"CLASSIFICATION_TYPE":"U","NORAD_CAT_ID":59173,"ELEMENT_SET_NO":999,"REV_AT_EPOCH":11361,"BSTAR":1.3801012e-5,"MEAN_MOTION_DOT":1.17e-6,"MEAN_MOTION_DDOT":0},{"OBJECT_NAME":"SL-24 DEB","OBJECT_ID":"2013-066AL","EPOCH":"2026-03-09T22:28:39.180576","MEAN_MOTION":15.26992446,"ECCENTRICITY":0.00036318,"INCLINATION":97.3978,"RA_OF_ASC_NODE":75.9402,"ARG_OF_PERICENTER":273.216,"MEAN_ANOMALY":86.8663,"EPHEMERIS_TYPE":0,"CLASSIFICATION_TYPE":"U","NORAD_CAT_ID":39450,"ELEMENT_SET_NO":999,"REV_AT_EPOCH":67244,"BSTAR":0.00070559472,"MEAN_MOTION_DOT":0.00018651,"MEAN_MOTION_DDOT":0}]
